O3B MPOWER F1           
1 54755U 22174A   24069.52311361 -.00000019  00000+0  00000+0 0  9994
2 54755   0.0644   6.5684 0006474 350.7202 231.4504  5.00118381 23855
